[Satellite]
VERSION=1.1
NAME=ABS 5 (AGILA 2)
NICKNAME=ABS 5 (AGILA 2)
TLE1=1 24901U 97042A   17186.01924240 -.00000200  00000-0  00000-0 0  9996
TLE2=2 24901   4.9204  63.1776 0005665  23.3946 288.9172  1.00273207 72767
